STARLINK-30790
1 58127U 23162K   26090.45459891  .00053264  00000+0  27779-2 0  9992
2 58127  43.0005   7.2338 0012845 190.3848 169.6735 15.15127437135667
